NORAD_CAT_ID,OBJECT_NAME,OBJECT_TYPE,EPOCH,MEAN_MOTION,ECCENTRICITY,INCLINATION,RA_OF_ASC_NODE,ARG_OF_PERICENTER,MEAN_ANOMALY,BSTAR,MEAN_MOTION_DOT,MEAN_MOTION_DDOT,TLE_LINE0,TLE_LINE1,TLE_LINE2,SEMIMAJOR_AXIS,PERIOD,APOGEE,PERIGEE,DECAYED
48148,STARLINK-2491,PAYLOAD,2021-08-28 20:23:01,15.06404633,0.0001796,53.058,35.98699999999999,107.5423,252.5762,2.8314e-05,1.4e-06,0.0,0 STARLINK-2491,1 48148U 21027BJ  21240.84931890  .00000140  00000-0  28314-4 0  9995,2 48148  53.0580  35.9870 0001796 107.5423 252.5762 15.06404633 23135,6925.334,95.59200000000001,548.443,545.956,0.0
48148,STARLINK-2491,PAYLOAD,2021-08-29 12:18:24,15.06402869,0.0001771,53.0581,33.0089,109.1351,250.9829,0.00013933,1.794e-05,0.0,0 STARLINK-2491,1 48148U 21027BJ  21241.51278363  .00001794  00000-0  13933-3 0  9995,2 48148  53.0581  33.0089 0001771 109.1351 250.9829 15.06402869 23234,6925.34,95.59200000000001,548.431,545.9780000000002,0.0
48148,STARLINK-2491,PAYLOAD,2021-08-29 17:05:02,15.0639114,0.00016659999999999998,53.0581,32.1156,109.3829,250.734,3.0003e-06,-2.37e-06,0.0,0 STARLINK-2491,1 48148U 21027BJ  21241.71183529 -.00000237  00000-0  30003-5 0  9997,2 48148  53.0581  32.1156 0001666 109.3829 250.7340 15.06391140 22878,6925.376,95.59299999999999,548.394,546.087,0.0
48148,STARLINK-2491,PAYLOAD,2021-08-29 20:16:07,15.06391274,0.0001686,53.0582,31.5203,110.3414,249.7756,7.756999999999998e-07,-2.7000000000000004e-06,0.0,0 STARLINK-2491,1 48148U 21027BJ  21241.84452955 -.00000270  00000-0  77570-6 0  9991,2 48148  53.0582  31.5203 0001686 110.3414 249.7756 15.06391274 23282,6925.375,95.59299999999999,548.408,546.073,0.0
48148,STARLINK-2491,PAYLOAD,2021-08-30 13:47:04,15.06385823,0.00016340000000000001,53.0583,28.2442,111.6738,248.4425,-0.00011168,-1.944e-05,0.0,0 STARLINK-2491,1 48148U 21027BJ  21242.57435530 -.00001944  00000-0 -11168-3 0  9990,2 48148  53.0583  28.2442 0001634 111.6738 248.4425 15.06385823 23391,6925.392,95.59299999999999,548.389,546.125,0.0
48148,STARLINK-2491,PAYLOAD,2021-08-30 20:09:14,15.06381367,0.00015800000000000002,53.0583,27.0529,113.01799999999999,247.0976,-0.00014148,-2.387e-05,0.0,0 STARLINK-2491,1 48148U 21027BJ  21242.83974861 -.00002387  00000-0 -14148-3 0  9997,2 48148  53.0583  27.0529 0001580 113.0180 247.0976 15.06381367 23431,6925.406,95.59299999999999,548.365,546.1759999999998,0.0
48148,STARLINK-2491,PAYLOAD,2021-08-31 02:31:23,15.06381703,0.0001551,53.0583,25.8616,113.4362,246.679,-0.00013584,-2.303e-05,0.0,0 STARLINK-2491,1 48148U 21027BJ  21243.10513808 -.00002303  00000-0 -13584-3 0  9999,2 48148  53.0583  25.8616 0001551 113.4362 246.6790 15.06381703 23475,6925.405,95.59299999999999,548.344,546.196,0.0
48148,STARLINK-2491,PAYLOAD,2021-08-31 13:40:10,15.06383723,0.0001517,53.0584,23.7769,114.238,245.8767,-0.00013824,-2.339e-05,0.0,0 STARLINK-2491,1 48148U 21027BJ  21243.56956954 -.00002339  00000-0 -13824-3 0  9998,2 48148  53.0584  23.7769 0001517 114.2380 245.8767 15.06383723 23540,6925.398,95.59299999999999,548.314,546.2130000000002,0.0
48148,STARLINK-2491,PAYLOAD,2021-08-31 20:02:20,15.06376273,0.0001663,53.0583,22.5857,114.3691,245.7472,-2.5419000000000002e-05,-6.6e-06,0.0,0 STARLINK-2491,1 48148U 21027BJ  21243.83496106 -.00000660  00000-0 -25419-4 0  9995,2 48148  53.0583  22.5857 0001663 114.3691 245.7472 15.06376273 23197,6925.4209999999985,95.594,548.438,546.135,0.0
48148,STARLINK-2491,PAYLOAD,2021-09-01 08:46:39,15.06388179,0.00013680000000000002,53.0584,20.2029,115.9345,244.1785,7.498800000000001e-05,8.35e-06,0.0,0 STARLINK-2491,1 48148U 21027BJ  21244.36573014  .00000835  00000-0  74988-4 0  9995,2 48148  53.0584  20.2029 0001368 115.9345 244.1785 15.06388179 23276,6925.385,95.59299999999999,548.197,546.302,0.0
48148,STARLINK-2491,PAYLOAD,2021-09-01 13:33:15,15.06390255,0.0001347,53.0583,19.3094,116.5134,243.5994,0.00017751,2.363e-05,0.0,0 STARLINK-2491,1 48148U 21027BJ  21244.56476749  .00002363  00000-0  17751-3 0  9996,2 48148  53.0583  19.3094 0001347 116.5134 243.5994 15.06390255 23695,6925.378000000002,95.59299999999999,548.1759999999998,546.311,0.0
48148,STARLINK-2491,PAYLOAD,2021-09-01 19:55:25,15.06390832,0.0001371,53.0584,18.1183,116.0212,244.0919,0.0002253,3.075e-05,0.0,0 STARLINK-2491,1 48148U 21027BJ  21244.83015478  .00003075  00000-0  22530-3 0  9996,2 48148  53.0584  18.1183 0001371 116.0212 244.0919 15.06390832 23730,6925.3769999999995,95.59299999999999,548.191,546.2919999999998,0.0
48148,STARLINK-2491,PAYLOAD,2021-09-02 02:17:34,15.06394188,0.000136,53.0585,16.9271,115.9573,244.1556,0.00022634,3.091e-05,0.0,0 STARLINK-2491,1 48148U 21027BJ  21245.09554125  .00003091  00000-0  22634-3 0  9995,2 48148  53.0585  16.9271 0001360 115.9573 244.1556 15.06394188 23388,6925.366,95.59299999999999,548.173,546.29,0.0
48148,STARLINK-2491,PAYLOAD,2021-09-02 13:26:21,15.06398086,0.00013580000000000002,53.0585,14.8425,116.8059,243.3069,0.00020976,2.844e-05,0.0,0 STARLINK-2491,1 48148U 21027BJ  21245.55996815  .00002844  00000-0  20976-3 0  9994,2 48148  53.0585  14.8425 0001358 116.8059 243.3069 15.06398086 23844,6925.354,95.59200000000001,548.16,546.279,0.0
48148,STARLINK-2491,PAYLOAD,2021-09-02 18:12:58,15.06400259,0.00013519999999999998,53.0585,13.949000000000002,117.3468,242.7658,0.00022003,2.997e-05,0.0,0 STARLINK-2491,1 48148U 21027BJ  21245.75900708  .00002997  00000-0  22003-3 0  9994,2 48148  53.0585  13.9490 0001352 117.3468 242.7658 15.06400259 23876,6925.348000000001,95.59200000000001,548.149,546.276,0.0
48148,STARLINK-2491,PAYLOAD,2021-09-03 08:32:49,15.06404883,0.0001364,53.0585,11.2685,117.867,242.2457,9.5718e-05,1.145e-05,0.0,0 STARLINK-2491,1 48148U 21027BJ  21246.35612720  .00001145  00000-0  95718-4 0  9993,2 48148  53.0585  11.2685 0001364 117.8670 242.2457 15.06404883 23965,6925.334,95.59200000000001,548.143,546.254,0.0
48148,STARLINK-2491,PAYLOAD,2021-09-03 16:30:31,15.06401949,0.0001349,53.0585,9.7795,117.0021,243.1106,-1.9942e-05,-5.78e-06,0.0,0 STARLINK-2491,1 48148U 21027BJ  21246.68786560 -.00000578  00000-0 -19942-4 0  9999,2 48148  53.0585   9.7795 0001349 117.0021 243.1106 15.06401949 23628,6925.343000000003,95.59200000000001,548.1419999999998,546.273,0.0
48148,STARLINK-2491,PAYLOAD,2021-09-04 08:25:54,15.064040499999999,0.00013330000000000001,53.0586,6.8012,117.3651,242.7473,-2.6674000000000002e-05,-6.79e-06,0.0,0 STARLINK-2491,1 48148U 21027BJ  21247.35133004 -.00000679  00000-0 -26674-4 0  9995,2 48148  53.0586   6.8012 0001333 117.3651 242.7473 15.06404050 24117,6925.3359999999975,95.59200000000001,548.124,546.278,0.0
48148,STARLINK-2491,PAYLOAD,2021-09-04 16:23:36,15.06407039,0.00013330000000000001,53.0585,5.312,117.7168,242.3957,-1.0614e-05,-4.4e-06,0.0,0 STARLINK-2491,1 48148U 21027BJ  21247.68306021 -.00000440  00000-0 -10614-4 0  9995,2 48148  53.0585   5.3120 0001333 117.7168 242.3957 15.06407039 24165,6925.3269999999975,95.59200000000001,548.115,546.269,0.0
48148,STARLINK-2491,PAYLOAD,2021-09-05 13:05:37,15.06391454,0.00013230000000000002,53.0585,1.4403,118.4462,241.6661,-1.0021e-05,-4.31e-06,0.0,0 STARLINK-2491,1 48148U 21027BJ  21248.54557490 -.00000431  00000-0 -10021-4 0  9991,2 48148  53.0585   1.4403 0001323 118.4462 241.6661 15.06391454 24291,6925.375,95.59299999999999,548.156,546.3240000000002,0.0
48148,STARLINK-2491,PAYLOAD,2021-09-05 16:16:42,15.06390962,0.0001347,53.0585,0.8448,117.8455,242.2671,-1.4639000000000007e-05,-4.99e-06,0.0,0 STARLINK-2491,1 48148U 21027BJ  21248.67826954 -.00000499  00000-0 -14639-4 0  9992,2 48148  53.0585   0.8448 0001347 117.8455 242.2671 15.06390962 23924,6925.376,95.59299999999999,548.174,546.308,0.0
48148,STARLINK-2491,PAYLOAD,2021-09-06 14:34:15,15.06396891,0.0001306,53.0584,356.6752,119.3032,240.8088,-5.7556e-06,-3.67e-06,0.0,0 STARLINK-2491,1 48148U 21027BJ  21249.60712357 -.00000367  00000-0 -57556-5 0  9997,2 48148  53.0584 356.6752 0001306 119.3032 240.8088 15.06396891 24458,6925.358,95.59200000000001,548.128,546.319,0.0
48148,STARLINK-2491,PAYLOAD,2021-09-06 19:20:52,15.0639798,0.00012849999999999998,53.0583,355.7818,118.9027,241.2091,4.8872e-06,-2.09e-06,0.0,0 STARLINK-2491,1 48148U 21027BJ  21249.80616317 -.00000209  00000-0  48872-5 0  9993,2 48148  53.0583 355.7818 0001285 118.9027 241.2091 15.06397980 24094,6925.355,95.59200000000001,548.11,546.33,0.0
48148,STARLINK-2491,PAYLOAD,2021-09-07 12:51:48,15.06395005,0.00012790000000000002,53.0583,352.5057,119.6496,240.46200000000002,0.00010653,1.305e-05,0.0,0 STARLINK-2491,1 48148U 21027BJ  21250.53597693  .00001305  00000-0  10653-3 0  9991,2 48148  53.0583 352.5057 0001279 119.6496 240.4620 15.06395005 24595,6925.364000000001,95.59200000000001,548.115,546.3430000000002,0.0
48148,STARLINK-2491,PAYLOAD,2021-09-07 19:13:57,15.06397259,0.0001256,53.0583,351.3144,119.2373,240.8742,0.00011929,1.496e-05,0.0,0 STARLINK-2491,1 48148U 21027BJ  21250.80136302  .00001496  00000-0  11929-3 0  9995,2 48148  53.0583 351.3144 0001256 119.2373 240.8742 15.06397259 24631,6925.357,95.59200000000001,548.092,546.352,0.0
48148,STARLINK-2491,PAYLOAD,2021-09-08 00:00:34,15.063987,0.0001248,53.0583,350.4209,119.8518,240.2595,0.00011540000000000001,1.438e-05,0.0,0 STARLINK-2491,1 48148U 21027BJ  21251.00040267  .00001438  00000-0  11540-3 0  9997,2 48148  53.0583 350.4209 0001248 119.8518 240.2595 15.06398700 24273,6925.353,95.59200000000001,548.082,546.3530000000002,0.0
48148,STARLINK-2491,PAYLOAD,2021-09-08 12:44:53,15.06404388,0.00012190000000000001,53.0583,348.0382,120.8186,239.2923,0.00012351,1.559e-05,0.0,0 STARLINK-2491,1 48148U 21027BJ  21251.53117271  .00001559  00000-0  12351-3 0  9990,2 48148  53.0583 348.0382 0001219 120.8186 239.2923 15.06404388 24744,6925.335,95.59200000000001,548.044,546.356,0.0
48148,STARLINK-2491,PAYLOAD,2021-09-08 17:31:31,15.063928400000002,0.0001305,53.0583,347.145,112.9927,247.12,1.7970999999999998e-05,-1.4e-07,0.0,0 STARLINK-2491,1 48148U 21027BJ  21251.73022362 -.00000014  00000-0  17971-4 0  9998,2 48148  53.0583 347.1450 0001305 112.9927 247.1200 15.06392840 24386,6925.371,95.59299999999999,548.139,546.332,0.0
